NORAD_CAT_ID,OBJECT_NAME,OBJECT_TYPE,EPOCH,MEAN_MOTION,ECCENTRICITY,INCLINATION,RA_OF_ASC_NODE,ARG_OF_PERICENTER,MEAN_ANOMALY,BSTAR,MEAN_MOTION_DOT,MEAN_MOTION_DDOT,TLE_LINE0,TLE_LINE1,TLE_LINE2,SEMIMAJOR_AXIS,PERIOD,APOGEE,PERIGEE,DECAYED
55288.0,STARLINK-5311,PAYLOAD,2024-02-28 11:35:05,14.98332437,0.0003038,69.9987,90.7697,269.2042,90.8769,-1.6714e-06,-1.13e-06,0.0,0 STARLINK-5311,1 55288U 23010V   24059.48270115 -.00000113  00000-0 -16714-5 0  9993,2 55288  69.9987  90.7697 0003038 269.2042  90.8769 14.98332437 62398,6950.185,96.107,574.162,569.939,0.0
55288.0,STARLINK-5311,PAYLOAD,2024-02-28 19:35:45,14.98330718,0.0003102,69.9986,89.9281,265.8002,94.2802,-8.4683e-06,-1.94e-06,0.0,0 STARLINK-5311,1 55288U 23010V   24059.81650180 -.00000194  00000-0 -84683-5 0  9993,2 55288  69.9986  89.9281 0003102 265.8002  94.2802 14.98330718 62448,6950.191,96.107,574.212,569.9,0.0
55288.0,STARLINK-5311,PAYLOAD,2024-02-29 05:12:34,14.98327547,0.0003068,69.9986,88.918,269.3035,90.7773,5.4961e-05,5.63e-06,0.0,0 STARLINK-5311,1 55288U 23010V   24060.21706292  .00000563  00000-0  54961-4 0  9998,2 55288  69.9986  88.9180 0003068 269.3035  90.7773 14.98327547 62197,6950.2,96.107,574.198,569.933,0.0
55288.0,STARLINK-5311,PAYLOAD,2024-02-29 11:37:06,14.983292,0.000306,69.9986,88.2445,269.0453,91.0356,6.6919e-05,7.06e-06,0.0,0 STARLINK-5311,1 55288U 23010V   24060.48410169  .00000706  00000-0  66919-4 0  9997,2 55288  69.9986  88.2445 0003060 269.0453  91.0356 14.98329200 62545,6950.195,96.107,574.187,569.934,0.0
55288.0,STARLINK-5311,PAYLOAD,2024-02-29 19:37:46,14.98328234,0.0003027,69.9987,87.4025,269.1016,90.9796,2.0513e-05,1.52e-06,0.0,0 STARLINK-5311,1 55288U 23010V   24060.81790363  .00000152  00000-0  20513-4 0  9996,2 55288  69.9987  87.4025 0003027 269.1016  90.9796 14.98328234 62597,6950.198,96.107,574.167,569.96,0.0
55288.0,STARLINK-5311,PAYLOAD,2024-03-01 11:39:07,14.98330241,0.0003008,69.9987,85.7192,268.9195,91.1619,-1.2233e-05,-2.39e-06,0.0,0 STARLINK-5311,1 55288U 23010V   24061.48550335 -.00000239  00000-0 -12233-4 0  9991,2 55288  69.9987  85.7192 0003008 268.9195  91.1619 14.98330241 62696,6950.192,96.107,574.148,569.967,0.0
55288.0,STARLINK-5311,PAYLOAD,2024-03-02 11:41:08,14.98333007,0.0002982,69.9988,83.194,269.3113,90.7705,1.3471e-05,6.8e-07,0.0,0 STARLINK-5311,1 55288U 23010V   24062.48690002  .00000068  00000-0  13471-4 0  9991,2 55288  69.9988  83.1940 0002982 269.3113  90.7705 14.98333007 62532,6950.184,96.107,574.121,569.976,0.0
55288.0,STARLINK-5311,PAYLOAD,2024-03-02 18:05:40,14.98330895,0.0002953,69.9989,82.5206,269.6233,90.4588,9.0962e-06,1.6e-07,0.0,0 STARLINK-5311,1 55288U 23010V   24062.75394116  .00000016  00000-0  90962-5 0  9992,2 55288  69.9989  82.5206 0002953 269.6233  90.4588 14.98330895 62881,6950.19,96.107,574.108,570.003,0.0
55288.0,STARLINK-5311,PAYLOAD,2024-03-03 11:43:09,14.98329915,0.0002893,69.999,80.67,266.9849,93.0979,2.3955e-05,1.93e-06,0.0,0 STARLINK-5311,1 55288U 23010V   24063.48830132  .00000193  00000-0  23955-4 0  9999,2 55288  69.9990  80.6700 0002893 266.9849  93.0979 14.98329915 62689,6950.193,96.107,574.069,570.047,0.0
55288.0,STARLINK-5311,PAYLOAD,2024-03-04 10:09:01,14.98336656,0.0002871,69.999,78.3122,270.0922,89.9908,5.6447e-05,5.81e-06,0.0,0 STARLINK-5311,1 55288U 23010V   24064.42293429  .00000581  00000-0  56447-4 0  9999,2 55288  69.9990  78.3122 0002871 270.0922  89.9908 14.98336656 62827,6950.172,96.107,574.033,570.042,0.0
55288.0,STARLINK-5311,PAYLOAD,2024-03-04 18:09:42,14.98329701,0.0002655,70.0005,77.4703,274.1003,85.9853,-1.2521e-05,-2.42e-06,0.0,0 STARLINK-5311,1 55288U 23010V   24064.75674059 -.00000242  00000-0 -12521-4 0  9998,2 55288  70.0005  77.4703 0002655 274.1003  85.9853 14.98329701 62870,6950.194,96.107,573.904,570.214,0.0
55288.0,STARLINK-5311,PAYLOAD,2024-03-05 03:46:31,14.98315096,0.0003225,69.9986,76.4601,270.0171,90.0618,-1.3999e-05,-2.6e-06,0.0,0 STARLINK-5311,1 55288U 23010V   24065.15730903 -.00000260  00000-0 -13999-4 0  9994,2 55288  69.9986  76.4601 0003225 270.0171  90.0618 14.98315096 62931,6950.239,96.108,574.345,569.863,0.0
55288.0,STARLINK-5311,PAYLOAD,2024-03-05 10:11:03,14.98318919,0.000246,69.9997,75.7882,260.191,99.8971,-9.1854e-05,-1.188e-05,0.0,0 STARLINK-5311,1 55288U 23010V   24065.42435092 -.00001188  00000-0 -91854-4 0  9991,2 55288  69.9997  75.7882 0002460 260.1910  99.8971 14.98318919 63282,6950.227,96.108,573.802,570.382,0.0
55288.0,STARLINK-5311,PAYLOAD,2024-03-05 18:11:44,14.98317656,0.0002859,69.9991,74.9449,273.2268,86.8564,6.6357e-05,6.99e-06,0.0,0 STARLINK-5311,1 55288U 23010V   24065.75814918  .00000699  00000-0  66357-4 0  9999,2 55288  69.9991  74.9449 0002859 273.2268  86.8564 14.98317656 63022,6950.231,96.108,574.083,570.109,0.0
55288.0,STARLINK-5311,PAYLOAD,2024-03-06 03:48:32,14.98328926,0.0002945,69.9989,73.9357,270.7112,89.371,-4.9818e-05,-6.87e-06,0.0,0 STARLINK-5311,1 55288U 23010V   24066.15870501 -.00000687  00000-0 -49818-4 0  9996,2 55288  69.9989  73.9357 0002945 270.7112  89.3710 14.98328926 63081,6950.196,96.107,574.108,570.014,0.0
55288.0,STARLINK-5311,PAYLOAD,2024-03-06 10:13:04,14.98329874,0.0002873,69.9992,73.2627,270.6349,89.448,-3.0878e-07,-9.7e-07,0.0,0 STARLINK-5311,1 55288U 23010V   24066.42574337 -.00000097  00000-0 -30878-6 0  9997,2 55288  69.9992  73.2627 0002873 270.6349  89.4480 14.98329874 63436,6950.193,96.107,574.055,570.061,0.0
55288.0,STARLINK-5311,PAYLOAD,2024-03-07 03:50:32,14.98328304,0.0003013,69.9989,71.4106,272.8664,87.215,0.00014278,1.611e-05,0.0,0 STARLINK-5311,1 55288U 23010V   24067.16009985  .00001611  00000-0  14278-3 0  9995,2 55288  69.9989  71.4106 0003013 272.8664  87.2150 14.98328304 63230,6950.198,96.107,574.157,569.969,0.0
55288.0,STARLINK-5311,PAYLOAD,2024-03-07 10:15:04,14.98332564,0.0002995,69.999,70.7372,272.6101,87.4715,0.00015847,1.798e-05,0.0,0 STARLINK-5311,1 55288U 23010V   24067.42713664  .00001798  00000-0  15847-3 0  9999,2 55288  69.9990  70.7372 0002995 272.6101  87.4715 14.98332564 63581,6950.185,96.107,574.132,569.968,0.0
55288.0,STARLINK-5311,PAYLOAD,2024-03-08 05:28:41,14.98329514,0.0002869,69.9994,68.717,272.9966,87.0865,-4.9108e-06,-1.52e-06,0.0,0 STARLINK-5311,1 55288U 23010V   24068.22826282 -.00000152  00000-0 -49108-5 0  9993,2 55288  69.9994  68.7170 0002869 272.9966  87.0865 14.98329514 63392,6950.194,96.107,574.053,570.065,0.0
55288.0,STARLINK-5311,PAYLOAD,2024-03-08 10:17:06,14.98329688,0.0002752,69.9997,68.2136,266.6711,93.4133,5.3095e-06,-3e-07,0.0,0 STARLINK-5311,1 55288U 23010V   24068.42854203 -.00000030  00000-0  53095-5 0  9993,2 55288  69.9997  68.2136 0002752 266.6711  93.4133 14.98329688 63730,6950.194,96.107,573.972,570.146,0.0
55288.0,STARLINK-5311,PAYLOAD,2024-03-08 16:41:38,14.9833025,0.0002706,69.9998,67.5402,268.1076,91.9774,-4.0272e-05,-5.73e-06,0.0,0 STARLINK-5311,1 55288U 23010V   24068.69558292 -.00000573  00000-0 -40272-4 0  9996,2 55288  69.9998  67.5402 0002706 268.1076  91.9774 14.98330250 63774,6950.192,96.107,573.938,570.176,0.0
55288.0,STARLINK-5311,PAYLOAD,2024-03-09 05:30:42,14.98332757,0.0002801,69.9997,66.193,270.4285,89.6553,-4.9872e-05,-6.88e-06,0.0,0 STARLINK-5311,1 55288U 23010V   24069.22966039 -.00000688  00000-0 -49872-4 0  9990,2 55288  69.9997  66.1930 0002801 270.4285  89.6553 14.98332757 63546,6950.184,96.107,573.996,570.103,0.0
55288.0,STARLINK-5311,PAYLOAD,2024-03-09 10:19:06,14.98333161,0.00028,69.9997,65.688,270.5525,89.5313,-4.1518e-05,-5.88e-06,0.0,0 STARLINK-5311,1 55288U 23010V   24069.42993956 -.00000588  00000-0 -41518-4 0  9998,2 55288  69.9997  65.6880 0002800 270.5525  89.5313 14.98333161 63881,6950.183,96.107,573.994,570.102,0.0
55288.0,STARLINK-5311,PAYLOAD,2024-03-09 16:43:39,14.98331451,0.0002821,69.9998,65.0147,269.8633,90.2203,-2.2215e-05,-3.58e-06,0.0,0 STARLINK-5311,1 55288U 23010V   24069.69697943 -.00000358  00000-0 -22215-4 0  9992,2 55288  69.9998  65.0147 0002821 269.8633  90.2203 14.98331451 63928,6950.188,96.107,574.014,570.093,0.0
55288.0,STARLINK-5311,PAYLOAD,2024-03-10 05:32:43,14.98331774,0.0002894,69.9995,63.6678,269.9687,90.114,2.304e-05,1.82e-06,0.0,0 STARLINK-5311,1 55288U 23010V   24070.23105709  .00000182  00000-0  23040-4 0  9998,2 55288  69.9995  63.6678 0002894 269.9687  90.1140 14.98331774 63699,6950.187,96.107,574.064,570.041,0.0
55288.0,STARLINK-5311,PAYLOAD,2024-03-10 10:21:07,14.98332474,0.0002892,69.9996,63.1628,269.8654,90.2173,2.9172e-05,2.55e-06,0.0,0 STARLINK-5311,1 55288U 23010V   24070.43133618  .00000255  00000-0  29172-4 0  9993,2 55288  69.9996  63.1628 0002892 269.8654  90.2173 14.98332474 64035,6950.185,96.107,574.06,570.04,0.0
55288.0,STARLINK-5311,PAYLOAD,2024-03-10 23:10:12,14.98328433,0.0002858,69.9997,61.8161,269.2007,90.8825,-1.3419e-06,-1.09e-06,0.0,0 STARLINK-5311,1 55288U 23010V   24070.96541907 -.00000109  00000-0 -13419-5 0  9993,2 55288  69.9997  61.8161 0002858 269.2007  90.8825 14.98328433 64110,6950.198,96.107,574.049,570.076,0.0
55288.0,STARLINK-5311,PAYLOAD,2024-03-11 05:34:44,14.98329213,0.0002902,69.9997,61.1431,268.4317,91.651,-1.7714e-06,-1.14e-06,0.0,0 STARLINK-5311,1 55288U 23010V   24071.23245847 -.00000114  00000-0 -17714-5 0  9996,2 55288  69.9997  61.1431 0002902 268.4317  91.6510 14.98329213 63844,6950.195,96.107,574.077,570.043,0.0
55288.0,STARLINK-5311,PAYLOAD,2024-03-11 08:47:00,14.98329511,0.0002901,69.9998,60.8064,268.5045,91.5781,1.1462e-06,-7.9e-07,0.0,0 STARLINK-5311,1 55288U 23010V   24071.36597820 -.00000079  00000-0  11462-5 0  9994,2 55288  69.9998  60.8064 0002901 268.5045  91.5781 14.98329511 64178,6950.194,96.107,574.076,570.043,0.0
55288.0,STARLINK-5311,PAYLOAD,2024-03-12 08:49:01,14.98332609,0.0002863,69.9997,58.2804,267.1021,92.981,-5.9382e-05,-8.01e-06,0.0,0 STARLINK-5311,1 55288U 23010V   24072.36737763 -.00000801  00000-0 -59382-4 0  9993,2 55288  69.9997  58.2804 0002863 267.1021  92.9810 14.98332609 64019,6950.185,96.107,574.04,570.06,0.0
